{
  "type": "FeatureCollection",
  "features": [
    {
      "type": "Feature",
      "properties": {
        "norad_id": 58701,
        "name": "TIANMU-1 16",
        "group": "weather",
        "lat": 9.87284886315076,
        "lon": 179.1967570312218,
        "alt_km": 495.75371408412866,
        "timestamp": "2025-12-25T16:53:14.297145+00:00",
        "meta_object_name": "TIANMU-1 16",
        "meta_object_id": "2024-004B",
        "meta_epoch": "2025-12-25T07:23:33.296928",
        "meta_mean_motion": 15.24599128,
        "meta_eccentricity": 0.00044209,
        "meta_inclination": 97.4569,
        "meta_ra_of_asc_node": 180.1092,
        "meta_arg_of_pericenter": 238.639,
        "meta_mean_anomaly": 121.4415,
        "meta_ephemeris_type": 0,
        "meta_classification_type": "U",
        "meta_norad_cat_id": 58701,
        "meta_element_set_no": 999,
        "meta_rev_at_epoch": 10926,
        "meta_bstar": 0.00031186814,
        "meta_mean_motion_dot": 7.621e-05,
        "meta_mean_motion_ddot": 0,
        "tle_line1": "1 58701U 24004B   25359.30802427  .00007621  00000+0  31187-3 0  9999",
        "tle_line2": "2 58701  97.4569 180.1092 0004420 238.6390 121.4415 15.24599128109267"
      },
      "geometry": {
        "type": "Point",
        "coordinates": [
          179.1967570312218,
          9.87284886315076
        ]
      }
    },
    {
      "type": "Feature",
      "properties": {
        "norad_id": 58702,
        "name": "TIANMU-1 17",
        "group": "weather",
        "lat": 80.07202958516763,
        "lon": 49.39343637803837,
        "alt_km": 486.3921137501602,
        "timestamp": "2025-12-25T16:53:14.297161+00:00",
        "meta_object_name": "TIANMU-1 17",
        "meta_object_id": "2024-004C",
        "meta_epoch": "2025-12-25T07:00:51.309792",
        "meta_mean_motion": 15.24641675,
        "meta_eccentricity": 0.00035801,
        "meta_inclination": 97.4602,
        "meta_ra_of_asc_node": 180.5099,
        "meta_arg_of_pericenter": 239.5803,
        "meta_mean_anomaly": 120.5081,
        "meta_ephemeris_type": 0,
        "meta_classification_type": "U",
        "meta_norad_cat_id": 58702,
        "meta_element_set_no": 999,
        "meta_rev_at_epoch": 10925,
        "meta_bstar": 0.00029028902,
        "meta_mean_motion_dot": 7.096e-05,
        "meta_mean_motion_ddot": 0,
        "tle_line1": "1 58702U 24004C   25359.29226053  .00007096  00000+0  29029-3 0  9991",
        "tle_line2": "2 58702  97.4602 180.5099 0003580 239.5803 120.5081 15.24641675109255"
      },
      "geometry": {
        "type": "Point",
        "coordinates": [
          49.39343637803837,
          80.07202958516763
        ]
      }
    },
    {
      "type": "Feature",
      "properties": {
        "norad_id": 58703,
        "name": "TIANMU-1 18",
        "group": "weather",
        "lat": -7.433370636737581,
        "lon": 0.1377974854179434,
        "alt_km": 494.5207450255821,
        "timestamp": "2025-12-25T16:53:14.297177+00:00",
        "meta_object_name": "TIANMU-1 18",
        "meta_object_id": "2024-004D",
        "meta_epoch": "2025-12-25T06:37:00.416064",
        "meta_mean_motion": 15.24623884,
        "meta_eccentricity": 0.00029766,
        "meta_inclination": 97.462,
        "meta_ra_of_asc_node": 180.6914,
        "meta_arg_of_pericenter": 236.2553,
        "meta_mean_anomaly": 123.8401,
        "meta_ephemeris_type": 0,
        "meta_classification_type": "U",
        "meta_norad_cat_id": 58703,
        "meta_element_set_no": 999,
        "meta_rev_at_epoch": 10925,
        "meta_bstar": 0.00029067994,
        "meta_mean_motion_dot": 7.102e-05,
        "meta_mean_motion_ddot": 0,
        "tle_line1": "1 58703U 24004D   25359.27569926  .00007102  00000+0  29068-3 0  9990",
        "tle_line2": "2 58703  97.4620 180.6914 0002976 236.2553 123.8401 15.24623884109251"
      },
      "geometry": {
        "type": "Point",
        "coordinates": [
          0.1377974854179434,
          -7.433370636737581
        ]
      }
    },
    {
      "type": "Feature",
      "properties": {
        "norad_id": 58990,
        "name": "INSAT-3DS",
        "group": "weather",
        "lat": -0.013059630151416078,
        "lon": 69.87752359885545,
        "alt_km": 35791.053283334644,
        "timestamp": "2025-12-25T16:53:14.297195+00:00",
        "meta_object_name": "INSAT-3DS",
        "meta_object_id": "2024-033A",
        "meta_epoch": "2025-12-24T23:45:39.809376",
        "meta_mean_motion": 1.00271318,
        "meta_eccentricity": 0.00012552,
        "meta_inclination": 0.0601,
        "meta_ra_of_asc_node": 99.644,
        "meta_arg_of_pericenter": 175.3991,
        "meta_mean_anomaly": 257.2391,
        "meta_ephemeris_type": 0,
        "meta_classification_type": "U",
        "meta_norad_cat_id": 58990,
        "meta_element_set_no": 999,
        "meta_rev_at_epoch": 4532,
        "meta_bstar": 0,
        "meta_mean_motion_dot": -1.35e-06,
        "meta_mean_motion_ddot": 0,
        "tle_line1": "1 58990U 24033A   25358.99004409 -.00000135  00000+0  00000+0 0  9999",
        "tle_line2": "2 58990   0.0601  99.6440 0001255 175.3991 257.2391  1.00271318 45326"
      },
      "geometry": {
        "type": "Point",
        "coordinates": [
          69.87752359885545,
          -0.013059630151416078
        ]
      }
    },
    {
      "type": "Feature",
      "properties": {
        "norad_id": 59051,
        "name": "METEOR-M2 4",
        "group": "weather",
        "lat": -74.37174899859572,
        "lon": -10.496998035718605,
        "alt_km": 820.8348424214937,
        "timestamp": "2025-12-25T16:53:14.297212+00:00",
        "meta_object_name": "METEOR-M2 4",
        "meta_object_id": "2024-039A",
        "meta_epoch": "2025-12-25T07:07:07.505760",
        "meta_mean_motion": 14.22403181,
        "meta_eccentricity": 0.00063839,
        "meta_inclination": 98.6785,
        "meta_ra_of_asc_node": 316.0096,
        "meta_arg_of_pericenter": 320.7304,
        "meta_mean_anomaly": 39.341,
        "meta_ephemeris_type": 0,
        "meta_classification_type": "U",
        "meta_norad_cat_id": 59051,
        "meta_element_set_no": 999,
        "meta_rev_at_epoch": 9454,
        "meta_bstar": 4.060944e-05,
        "meta_mean_motion_dot": 4.7e-07,
        "meta_mean_motion_ddot": 0,
        "tle_line1": "1 59051U 24039A   25359.29661465  .00000047  00000+0  40609-4 0  9994",
        "tle_line2": "2 59051  98.6785 316.0096 0006383 320.7304  39.3410 14.22403181 94547"
      },
      "geometry": {
        "type": "Point",
        "coordinates": [
          -10.496998035718605,
          -74.37174899859572
        ]
      }
    },
    {
      "type": "Feature",
      "properties": {
        "norad_id": 60133,
        "name": "GOES 19",
        "group": "weather",
        "lat": 0.004898693389913306,
        "lon": -87.43106001718317,
        "alt_km": 35783.39859657413,
        "timestamp": "2025-12-25T16:53:14.297230+00:00",
        "meta_object_name": "GOES 19",
        "meta_object_id": "2024-119A",
        "meta_epoch": "2025-12-25T04:31:42.625056",
        "meta_mean_motion": 1.0027105,
        "meta_eccentricity": 0.00010365,
        "meta_inclination": 0.0152,
        "meta_ra_of_asc_node": 183.0311,
        "meta_arg_of_pericenter": 137.5029,
        "meta_mean_anomaly": 126.1624,
        "meta_ephemeris_type": 0,
        "meta_classification_type": "U",
        "meta_norad_cat_id": 60133,
        "meta_element_set_no": 999,
        "meta_rev_at_epoch": 521,
        "meta_bstar": 0,
        "meta_mean_motion_dot": -2.27e-06,
        "meta_mean_motion_ddot": 0,
        "tle_line1": "1 60133U 24119A   25359.18868779 -.00000227  00000+0  00000+0 0  9998",
        "tle_line2": "2 60133   0.0152 183.0311 0001036 137.5029 126.1624  1.00271050  5213"
      },
      "geometry": {
        "type": "Point",
        "coordinates": [
          -87.43106001718317,
          0.004898693389913306
        ]
      }
    },
    {
      "type": "Feature",
      "properties": {
        "norad_id": 65815,
        "name": "FENGYUN 3H",
        "group": "weather",
        "lat": 44.924322007550565,
        "lon": -69.72970901182586,
        "alt_km": 821.4877375810274,
        "timestamp": "2025-12-25T16:53:14.297247+00:00",
        "meta_object_name": "FENGYUN 3H",
        "meta_object_id": "2025-219A",
        "meta_epoch": "2025-12-25T06:31:34.001184",
        "meta_mean_motion": 14.19907949,
        "meta_eccentricity": 8.479e-05,
        "meta_inclination": 98.6602,
        "meta_ra_of_asc_node": 298.5911,
        "meta_arg_of_pericenter": 108.8403,
        "meta_mean_anomaly": 251.2866,
        "meta_ephemeris_type": 0,
        "meta_classification_type": "U",
        "meta_norad_cat_id": 65815,
        "meta_element_set_no": 999,
        "meta_rev_at_epoch": 1270,
        "meta_bstar": 6.598625e-05,
        "meta_mean_motion_dot": 9.7e-07,
        "meta_mean_motion_ddot": 0,
        "tle_line1": "1 65815U 25219A   25359.27192131  .00000097  00000+0  65986-4 0  9997",
        "tle_line2": "2 65815  98.6602 298.5911 0000847 108.8403 251.2866 14.19907949 12709"
      },
      "geometry": {
        "type": "Point",
        "coordinates": [
          -69.72970901182586,
          44.924322007550565
        ]
      }
    }
  ]
}